{"fetched_at":"2026-06-09T10:59:57Z","count":3433,"tles":[{"name":"SL-16 R/B","line1":"1 31793U 07029B   26159.91817537  .00000316  00000+0  18846-3 0  9994","line2":"2 31793  70.9760 340.6117 0002225 258.7389 212.7314 14.14850454978278","category":"Other"},{"name":"CZ-2C R/B","line1":"1 37731U 11030B   26160.13002086  .00001154  00000+0  15069-3 0  9995","line2":"2 37731  97.8652 115.6620 0053586  53.6987 322.0569 14.81451200803639","category":"Other"},{"name":"GSLV R/B","line1":"1 54149U 22138AN  26159.89706716  .00002276  00000+0  19342-3 0  9994","line2":"2 54149  87.3798 135.7685 0021603 172.4257 187.7305 14.97221421197575","category":"Other"},{"name":"SHIJIAN-16 (SJ-16)","line1":"1 39358U 13057A   26160.19609100  .00000552  00000+0  56363-4 0  9993","line2":"2 39358  74.9734  11.8187 0016932 249.2227 110.7148 14.92592205685155","category":"Other"},{"name":"KORONAS-FOTON","line1":"1 33504U 09003A   26160.11544418  .00009800  00000+0  20279-3 0  9999","line2":"2 33504  82.4293 180.6785 0010776 174.3353 185.8020 15.45555714959859","category":"Other"},{"name":"H-2A R/B","line1":"1 38341U 12025E   26160.19596764  .00002709  00000+0  24513-3 0  9996","line2":"2 38341  98.4813 134.6827 0044227  15.0551 345.1972 14.95671339761891","category":"Other"},{"name":"CSS (TIANHE)","line1":"1 48274U 21035A   26160.04189559  .00019551  00000+0  23399-3 0  9991","line2":"2 48274  41.4695  11.5598 0008491  12.4577 347.6471 15.60465773291898","category":"Other"},{"name":"YAOGAN-29","line1":"1 41038U 15069A   26160.21656264 -.00000005  00000+0  59825-5 0  9993","line2":"2 41038  98.0033 188.8367 0002876  66.6060 293.5456 14.83077147569443","category":"Other"},{"name":"H-2A R/B","line1":"1 43682U 18084L   26159.90302662  .00019575  00000+0  41495-3 0  9997","line2":"2 43682  98.8591  36.9846 0024203  68.0040 292.3772 15.44834154419847","category":"Other"},{"name":"CZ-2C R/B","line1":"1 52794U 22058K   26159.85951762  .00031096  00000+0  35378-3 0  9997","line2":"2 52794  50.1846 206.8323 0033026 233.1496 126.6448 15.61291908224347","category":"Other"},{"name":"SL-4 R/B","line1":"1 39679U 14021B   26159.50842617  .00010612  00000+0  22119-3 0  9995","line2":"2 39679  51.6058 253.2847 0091641  74.4037 286.7040 15.41771019670273","category":"Other"},{"name":"ASTRO-H (HITOMI)","line1":"1 41337U 16012A   26160.17061655  .00002073  00000+0  11712-3 0  9990","line2":"2 41337  30.9980 125.9593 0009629 173.7339 186.3421 15.10475751566077","category":"Other"},{"name":"COSMOS 2550","line1":"1 48865U 21056A   26159.80793882  .00006310  00000+0  19790-3 0  9991","line2":"2 48865  67.1416 125.2525 0008705 266.0377  93.9783 15.33755463277435","category":"Other"},{"name":"HXMT (HUIYAN)","line1":"1 42758U 17034A   26160.17500949  .00003866  00000+0  19393-3 0  9991","line2":"2 42758  43.0132 227.6541 0030177  94.2847 266.1451 15.18421135496443","category":"Other"},{"name":"ACS3","line1":"1 59588U 24077B   26160.02220183  .00020594  00000+0  15401-1 0  9999","line2":"2 59588  97.1675  80.6339 0053079  68.2482 292.4322 13.93913501106900","category":"Other"},{"name":"SAOCOM 1B","line1":"1 46265U 20059A   26160.20104690  .00000296  00000+0  43781-4 0  9999","line2":"2 46265  97.8891 346.1604 0001469  78.7564 281.3814 14.82163646312305","category":"Other"},{"name":"ALOS-2","line1":"1 39766U 14029A   26159.54979360  .00001451  00000+0  20114-3 0  9994","line2":"2 39766  97.9210 256.8376 0001671  90.6305 269.5098 14.79472067650306","category":"Other"},{"name":"COSMOS 2428","line1":"1 31792U 07029A   26160.00215514 -.00000175  00000+0 -68151-4 0  9992","line2":"2 31792  70.9374  11.6640 0007207 150.7335 209.4191 14.12929769976998","category":"Other"},{"name":"COSMO-SKYMED 1","line1":"1 31598U 07023A   26160.18128682  .00001765  00000+0  15832-3 0  9999","line2":"2 31598  97.8856 351.9709 0001089  82.1946 277.9399 14.97062779 28595","category":"Other"},{"name":"SAOCOM 1A","line1":"1 43641U 18076A   26160.16976990  .00000398  00000+0  56560-4 0  9997","line2":"2 43641  97.8889 347.0353 0001515  77.0604 283.0778 14.82169522414914","category":"Other"},{"name":"CZ-8A R/B","line1":"1 66004U 25231K   26160.01654779 -.00000032  00000+0  47016-4 0  9990","line2":"2 66004  50.0043  74.0772 0116475 195.2486 164.4907 14.30152604 33773","category":"Other"}]}